start=new Date('2022-12-16T00:00:00.000Z').valueOf();
sats=[{"MEAN_MOTION":"15.08841823","RCS_SIZE":"LARGE","OBJECT_ID":"2022-086B","ECCENTRICITY":"0.00020440","TLE_LINE1":"1 53243U 22086B   22349.70437273  .00001215  00000-0  94418-4 0  9997","LAUNCH_DATE":"2022-07-24","CLASSIFICATION_TYPE":"U","MEAN_ANOMALY":"314.8091","TIME_SYSTEM":"UTC","PERIOD":"95.437","RA_OF_ASC_NODE":"101.2677","SITE":"AFETR","MEAN_MOTION_DDOT":"0.0000000000000","MEAN_ELEMENT_THEORY":"SGP4","PERIAPSIS":"538.326","INCLINATION":"53.2168","REV_AT_EPOCH":"2312","ARG_OF_PERICENTER":"45.3068","EPHEMERIS_TYPE":"0","DECAY_DATE":null,"APOAPSIS":"541.154","FILE":"3702726","MEAN_MOTION_DOT":"0.00001215","SEMIMAJOR_AXIS":"6917.875","ELEMENT_SET_NO":"999","EPOCH":"2022-12-15T16:54:17.803872","BSTAR":"0.00009441800000","OBJECT_NAME":"STARLINK-4047","COUNTRY_CODE":"US","CENTER_NAME":"EARTH","NORAD_CAT_ID":"53243","REF_FRAME":"TEME","TLE_LINE2":"2 53243  53.2168 101.2677 0002044  45.3068 314.8091 15.08841823 23128","GP_ID":"220531725","OBJECT_TYPE":"PAYLOAD"},{"RA_OF_ASC_NODE":"101.0301","PERIOD":"95.438","SITE":"AFETR","MEAN_MOTION_DDOT":"0.0000000000000","MEAN_ELEMENT_THEORY":"SGP4","PERIAPSIS":"538.072","INCLINATION":"53.2175","RCS_SIZE":"LARGE","MEAN_MOTION":"15.08830320","OBJECT_ID":"2022-086C","ECCENTRICITY":"0.00024610","TLE_LINE1":"1 53244U 22086C   22349.75958023 -.00000247  00000-0  25849-5 0  9992","LAUNCH_DATE":"2022-07-24","CLASSIFICATION_TYPE":"U","MEAN_ANOMALY":"321.6022","TIME_SYSTEM":"UTC","COUNTRY_CODE":"US","CENTER_NAME":"EARTH","NORAD_CAT_ID":"53244","REF_FRAME":"TEME","GP_ID":"220530664","TLE_LINE2":"2 53244  53.2175 101.0301 0002461  38.5145 321.6022 15.08830320 23111","OBJECT_TYPE":"PAYLOAD","REV_AT_EPOCH":"2311","EPHEMERIS_TYPE":"0","ARG_OF_PERICENTER":"38.5145","APOAPSIS":"541.477","DECAY_DATE":null,"MEAN_MOTION_DOT":"-0.00000247","FILE":"3702726","SEMIMAJOR_AXIS":"6917.910","ELEMENT_SET_NO":"999","EPOCH":"2022-12-15T18:13:47.731872","BSTAR":"0.00000258490000","OBJECT_NAME":"STARLINK-4125"},{"MEAN_MOTION":"15.08841284","RCS_SIZE":"LARGE","OBJECT_ID":"2022-086D","TLE_LINE1":"1 53245U 22086D   22349.76693241  .00001625  00000-0  12017-3 0  9993","ECCENTRICITY":"0.00020220","LAUNCH_DATE":"2022-07-24","CLASSIFICATION_TYPE":"U","MEAN_ANOMALY":"322.0995","TIME_SYSTEM":"UTC","RA_OF_ASC_NODE":"100.9924","PERIOD":"95.437","MEAN_MOTION_DDOT":"0.0000000000000","SITE":"AFETR","MEAN_ELEMENT_THEORY":"SGP4","PERIAPSIS":"538.343","INCLINATION":"53.2164","REV_AT_EPOCH":"2313","ARG_OF_PERICENTER":"38.0139","EPHEMERIS_TYPE":"0","DECAY_DATE":null,"APOAPSIS":"541.140","MEAN_MOTION_DOT":"0.00001625","FILE":"3702726","SEMIMAJOR_AXIS":"6917.876","ELEMENT_SET_NO":"999","EPOCH":"2022-12-15T18:24:22.960224","BSTAR":"0.00012017000000","OBJECT_NAME":"STARLINK-4124","CENTER_NAME":"EARTH","COUNTRY_CODE":"US","NORAD_CAT_ID":"53245","REF_FRAME":"TEME","GP_ID":"220530877","TLE_LINE2":"2 53245  53.2164 100.9924 0002022  38.0139 322.0995 15.08841284 23137","OBJECT_TYPE":"PAYLOAD"},{"OBJECT_ID":"2022-086E","TLE_LINE1":"1 53246U 22086E   22349.69701784  .00001669  00000-0  12293-3 0  9992","ECCENTRICITY":"0.00025400","LAUNCH_DATE":"2022-07-24","RCS_SIZE":"LARGE","MEAN_MOTION":"15.08840602","TIME_SYSTEM":"UTC","CLASSIFICATION_TYPE":"U","MEAN_ANOMALY":"315.1904","MEAN_MOTION_DDOT":"0.0000000000000","SITE":"AFETR","RA_OF_ASC_NODE":"101.3100","PERIOD":"95.438","PERIAPSIS":"537.986","MEAN_ELEMENT_THEORY":"SGP4","INCLINATION":"53.2174","DECAY_DATE":null,"APOAPSIS":"541.501","MEAN_MOTION_DOT":"0.00001669","FILE":"3702726","REV_AT_EPOCH":"2199","ARG_OF_PERICENTER":"44.9293","EPHEMERIS_TYPE":"0","EPOCH":"2022-12-15T16:43:42.341376","BSTAR":"0.00012293000000","OBJECT_NAME":"STARLINK-4131","SEMIMAJOR_AXIS":"6917.879","ELEMENT_SET_NO":"999","NORAD_CAT_ID":"53246","REF_FRAME":"TEME","CENTER_NAME":"EARTH","COUNTRY_CODE":"US","GP_ID":"220531089","TLE_LINE2":"2 53246  53.2174 101.3100 0002540  44.9293 315.1904 15.08840602 21990","OBJECT_TYPE":"PAYLOAD"},{"BSTAR":"0.00003136000000","OBJECT_NAME":"STARLINK-4061","EPOCH":"2022-12-15T16:48:23.064480","SEMIMAJOR_AXIS":"6917.878","ELEMENT_SET_NO":"999","MEAN_MOTION_DOT":"0.00000211","FILE":"3702726","DECAY_DATE":null,"APOAPSIS":"541.026","REV_AT_EPOCH":"2317","EPHEMERIS_TYPE":"0","ARG_OF_PERICENTER":"28.2400","OBJECT_TYPE":"PAYLOAD","GP_ID":"220531301","TLE_LINE2":"2 53247  53.2183  96.3140 0001854  28.2400 331.8692 15.08840737 23170","REF_FRAME":"TEME","NORAD_CAT_ID":"53247","COUNTRY_CODE":"US","CENTER_NAME":"EARTH","TIME_SYSTEM":"UTC","MEAN_ANOMALY":"331.8692","CLASSIFICATION_TYPE":"U","TLE_LINE1":"1 53247U 22086F   22349.70026695  .00000211  00000-0  31360-4 0  9995","ECCENTRICITY":"0.00018540","LAUNCH_DATE":"2022-07-24","OBJECT_ID":"2022-086F","RCS_SIZE":"LARGE","MEAN_MOTION":"15.08840737","INCLINATION":"53.2183","MEAN_ELEMENT_THEORY":"SGP4","PERIAPSIS":"538.461","MEAN_MOTION_DDOT":"0.0000000000000","SITE":"AFETR","RA_OF_ASC_NODE":"96.3140","PERIOD":"95.438"},{"NORAD_CAT_ID":"53248","REF_FRAME":"TEME","COUNTRY_CODE":"US","CENTER_NAME":"EARTH","TLE_LINE2":"2 53248  53.2160  96.0266 0001858  43.9045 316.2094 15.08846413 23186","GP_ID":"220530238","OBJECT_TYPE":"PAYLOAD","APOAPSIS":"541.011","DECAY_DATE":null,"FILE":"3702726","MEAN_MOTION_DOT":"0.00003228","ARG_OF_PERICENTER":"43.9045","EPHEMERIS_TYPE":"0","REV_AT_EPOCH":"2318","EPOCH":"2022-12-15T18:18:28.442880","OBJECT_NAME":"STARLINK-4135","BSTAR":"0.00022080000000","ELEMENT_SET_NO":"999","SEMIMAJOR_AXIS":"6917.861","SITE":"AFETR","MEAN_MOTION_DDOT":"0.0000000000000","PERIOD":"95.437","RA_OF_ASC_NODE":"96.0266","PERIAPSIS":"538.440","MEAN_ELEMENT_THEORY":"SGP4","INCLINATION":"53.2160","OBJECT_ID":"2022-086G","TLE_LINE1":"1 53248U 22086G   22349.76282920  .00003228  00000-0  22080-3 0  9996","LAUNCH_DATE":"2022-07-24","ECCENTRICITY":"0.00018580","RCS_SIZE":"LARGE","MEAN_MOTION":"15.08846413","TIME_SYSTEM":"UTC","CLASSIFICATION_TYPE":"U","MEAN_ANOMALY":"316.2094"},{"REF_FRAME":"TEME","NORAD_CAT_ID":"53249","COUNTRY_CODE":"US","CENTER_NAME":"EARTH","OBJECT_TYPE":"PAYLOAD","GP_ID":"220530451","TLE_LINE2":"2 53249  53.2160  91.2787 0002242  40.2446 319.8711 15.08834899 22948","FILE":"3702726","MEAN_MOTION_DOT":"-0.00000491","DECAY_DATE":null,"APOAPSIS":"541.312","REV_AT_EPOCH":"2294","EPHEMERIS_TYPE":"0","ARG_OF_PERICENTER":"40.2446","BSTAR":"-0.00001271600000","OBJECT_NAME":"STARLINK-4128","EPOCH":"2022-12-15T17:00:55.661184","SEMIMAJOR_AXIS":"6917.896","ELEMENT_SET_NO":"999","SITE":"AFETR","MEAN_MOTION_DDOT":"0.0000000000000","RA_OF_ASC_NODE":"91.2787","PERIOD":"95.438","INCLINATION":"53.2160","MEAN_ELEMENT_THEORY":"SGP4","PERIAPSIS":"538.210","TLE_LINE1":"1 53249U 22086H   22349.70897756 -.00000491  00000-0 -12716-4 0  9997","LAUNCH_DATE":"2022-07-24","ECCENTRICITY":"0.00022420","OBJECT_ID":"2022-086H","MEAN_MOTION":"15.08834899","RCS_SIZE":"LARGE","TIME_SYSTEM":"UTC","MEAN_ANOMALY":"319.8711","CLASSIFICATION_TYPE":"U"},{"MEAN_MOTION":"15.08859131","RCS_SIZE":"LARGE","OBJECT_ID":"2022-086J","LAUNCH_DATE":"2022-07-24","TLE_LINE1":"1 53250U 22086J   22349.71264882  .00009037  00000-0  58488-3 0  9996","ECCENTRICITY":"0.00024800","CLASSIFICATION_TYPE":"U","MEAN_ANOMALY":"318.8466","TIME_SYSTEM":"UTC","RA_OF_ASC_NODE":"91.2607","PERIOD":"95.436","SITE":"AFETR","MEAN_MOTION_DDOT":"0.0000000000000","PERIAPSIS":"537.971","MEAN_ELEMENT_THEORY":"SGP4","INCLINATION":"53.2157","EPHEMERIS_TYPE":"0","ARG_OF_PERICENTER":"41.2714","REV_AT_EPOCH":"2294","DECAY_DATE":null,"APOAPSIS":"541.403","FILE":"3702726","MEAN_MOTION_DOT":"0.00009037","ELEMENT_SET_NO":"999","SEMIMAJOR_AXIS":"6917.822","EPOCH":"2022-12-15T17:06:12.858048","OBJECT_NAME":"STARLINK-4059","BSTAR":"0.00058488000000","CENTER_NAME":"EARTH","COUNTRY_CODE":"US","NORAD_CAT_ID":"53250","REF_FRAME":"TEME","TLE_LINE2":"2 53250  53.2157  91.2607 0002480  41.2714 318.8466 15.08859131 22942","GP_ID":"220531514","OBJECT_TYPE":"PAYLOAD"},{"OBJECT_TYPE":"PAYLOAD","TLE_LINE2":"2 53251  53.2167  91.0040 0002407  30.3618 329.7514 15.08842555 22930","GP_ID":"220531726","REF_FRAME":"TEME","NORAD_CAT_ID":"53251","COUNTRY_CODE":"US","CENTER_NAME":"EARTH","OBJECT_NAME":"STARLINK-4129","BSTAR":"0.00012404000000","EPOCH":"2022-12-15T18:25:42.432672","ELEMENT_SET_NO":"999","SEMIMAJOR_AXIS":"6917.873","MEAN_MOTION_DOT":"0.00001686","FILE":"3702726","APOAPSIS":"541.403","DECAY_DATE":null,"EPHEMERIS_TYPE":"0","ARG_OF_PERICENTER":"30.3618","REV_AT_EPOCH":"2293","INCLINATION":"53.2167","MEAN_ELEMENT_THEORY":"SGP4","PERIAPSIS":"538.072","SITE":"AFETR","MEAN_MOTION_DDOT":"0.0000000000000","RA_OF_ASC_NODE":"91.0040","PERIOD":"95.437","TIME_SYSTEM":"UTC","MEAN_ANOMALY":"329.7514","CLASSIFICATION_TYPE":"U","TLE_LINE1":"1 53251U 22086K   22349.76785223  .00001686  00000-0  12404-3 0  9999","LAUNCH_DATE":"2022-07-24","ECCENTRICITY":"0.00024070","OBJECT_ID":"2022-086K","MEAN_MOTION":"15.08842555","RCS_SIZE":"LARGE"},{"ELEMENT_SET_NO":"999","SEMIMAJOR_AXIS":"6917.877","EPOCH":"2022-12-15T18:37:41.126016","OBJECT_NAME":"STARLINK-4132","BSTAR":"0.00008739100000","EPHEMERIS_TYPE":"0","ARG_OF_PERICENTER":"30.9049","REV_AT_EPOCH":"2295","APOAPSIS":"541.518","DECAY_DATE":null,"MEAN_MOTION_DOT":"0.00001103","FILE":"3702726","GP_ID":"220530665","TLE_LINE2":"2 53252  53.2174  90.9694 0002567  30.9049 329.2094 15.08841132 22953","OBJECT_TYPE":"PAYLOAD","COUNTRY_CODE":"US","CENTER_NAME":"EARTH","NORAD_CAT_ID":"53252","REF_FRAME":"TEME","CLASSIFICATION_TYPE":"U","MEAN_ANOMALY":"329.2094","TIME_SYSTEM":"UTC","MEAN_MOTION":"15.08841132","RCS_SIZE":"LARGE","OBJECT_ID":"2022-086L","LAUNCH_DATE":"2022-07-24","TLE_LINE1":"1 53252U 22086L   22349.77617044  .00001103  00000-0  87391-4 0  9998","ECCENTRICITY":"0.00025670","PERIAPSIS":"537.966","MEAN_ELEMENT_THEORY":"SGP4","INCLINATION":"53.2174","RA_OF_ASC_NODE":"90.9694","PERIOD":"95.437","MEAN_MOTION_DDOT":"0.0000000000000","SITE":"AFETR"}];
